OBJECT_NAME,OBJECT_ID,EPOCH,MEAN_MOTION,ECCENTRICITY,INCLINATION,RA_OF_ASC_NODE,ARG_OF_PERICENTER,MEAN_ANOMALY,EPHEMERIS_TYPE,CLASSIFICATION_TYPE,NORAD_CAT_ID,ELEMENT_SET_NO,REV_AT_EPOCH,BSTAR,MEAN_MOTION_DOT,MEAN_MOTION_DDOT
GALAXY 37 (G-37),2023-112A,2026-07-08T01:07:10.173792,1.00272444,.000184,0.0195,37.4214,76.8938,61.4872,0,U,57493,999,1075,0,.63E-6,0
LUDI TANCE-4 01A,2023-120A,2026-07-07T00:28:58.920960,1.00265129,.00016469,15.0918,193.4829,25.1906,162.9772,0,U,57624,999,1074,0,-.154E-5,0
TJS-10,2023-169A,2026-07-07T17:36:31.374144,1.00267348,.0004445,2.5940,80.2499,108.6074,93.3417,0,U,58204,999,974,0,-.234E-5,0
ZHONGXING-6E,2023-172A,2026-07-08T02:39:38.719584,1.00265600,.0002161,0.0188,42.2091,68.0560,331.2067,0,U,58253,999,986,0,0,0
YAOGAN-41,2023-197A,2026-07-08T00:35:50.678304,1.00269858,.0014346,3.0924,313.4445,197.7632,266.9426,0,U,58582,999,953,0,-.345E-5,0
OVZON-3,2024-003A,2026-07-08T03:43:00.563232,1.00271902,.0000038,0.0106,84.7696,202.9830,113.8002,0,U,58698,999,765,0,.67E-6,0
INSAT-3DS,2024-033A,2026-07-08T02:06:50.303808,1.00272301,.0001081,0.0837,95.3554,22.7000,281.7700,0,U,58990,999,4727,0,-.141E-5,0
MERAH PUTIH 2,2024-035A,2026-07-08T02:15:34.465824,1.00268140,.0000947,0.0232,45.5391,76.9247,310.4372,0,U,58995,999,879,0,0,0
TJS-11,2024-037A,2026-07-07T22:50:08.540736,1.00265582,.0002911,4.1730,327.3216,135.0927,278.5831,0,U,59020,999,879,0,-.347E-5,0
HULIANWAN GAOGUI-01 (HG-01),2024-040A,2026-07-08T00:10:23.119392,1.00267764,.0001765,0.0716,332.0957,74.5240,275.5891,0,U,59069,999,753,0,.171E-5,0
EUTELSAT 36D,2024-059A,2026-07-08T03:36:16.207776,1.00272376,.000023,0.0192,49.2569,145.3528,181.4211,0,U,59346,999,835,0,.171E-5,0
PAKSAT-MM1,2024-104A,2026-07-08T03:36:53.649216,1.00266029,.0002154,0.0374,179.0985,266.1436,293.2719,0,U,59915,999,773,0,.169E-5,0
ASTRA 1P (SES-24),2024-115A,2026-07-08T01:48:52.025760,1.00263396,.0001174,0.0600,333.7290,264.8187,93.9121,0,U,60086,999,740,0,.134E-5,0
GOES 19,2024-119A,2026-07-08T03:04:33.143232,1.00271472,.0000466,0.0329,203.6122,345.8715,67.5473,0,U,60133,999,717,0,-.233E-5,0
ZHONGXING-3A,2024-122A,2026-07-07T15:56:10.737024,1.00268796,.0001836,0.0330,133.7676,21.5491,110.9046,0,U,60179,999,751,0,-.298E-5,0
TURKSAT 6A,2024-127A,2026-07-07T05:23:26.431008,1.00272408,.00027741,0.0432,192.3892,325.3714,250.2909,0,U,60233,999,721,0,.161E-5,0
HULIANWAN GAOGUI-02 (HG-02),2024-135A,2026-07-06T21:21:51.277248,1.00266706,.00067179,0.0453,354.0269,15.3677,28.9466,0,U,60327,999,769,0,-.16E-5,0
ZHONGXING-4A,2024-151A,2026-07-08T02:16:49.346112,1.00271429,.0000201,1.2633,270.5641,267.9801,259.9448,0,U,60606,999,696,0,-.346E-5,0
HULIANWAN GAOGUI-03 (HG-03),2024-181A,2026-07-07T20:13:25.809312,1.00273546,.0001256,0.0489,357.9113,88.7434,65.3662,0,U,61503,999,703,0,-.226E-5,0
DSN-3 (KIRAMEKI-3),2024-198A,2026-07-08T04:06:58.266144,1.00269449,.0000934,0.0277,277.5875,227.3571,346.9747,0,U,61733,999,613,0,-.235E-5,0
KOREASAT 6A,2024-206A,2026-07-08T02:39:38.721312,1.00271603,.0000759,0.0132,282.1897,166.0496,353.7549,0,U,61910,999,604,0,-.347E-5,0
OPTUS-X (ADS-01),2024-212A,2026-07-08T04:35:38.560128,1.00270627,.0002344,0.0106,336.0193,176.7893,358.6600,0,U,62006,999,597,0,-.128E-5,0
GSAT-N2 (GSAT-20),2024-214A,2026-07-08T03:45:22.836384,1.00270791,.0001936,0.0166,30.8750,36.5679,342.9758,0,U,62028,999,610,0,0,0
SXM-9,2024-234A,2026-07-08T03:01:40.865952,1.00270593,.0004905,0.0170,333.4335,344.1874,288.7361,0,U,62259,999,578,0,-.19E-5,0
TJS-12,2024-246A,2026-07-08T04:35:38.560992,1.00271074,.0001902,0.6274,301.2052,100.7813,99.6339,0,U,62374,999,577,0,-.215E-5,0
NUVIEW ALPHA,2024-252B,2026-07-08T04:55:55.905024,1.00271887,.000098,0.0450,27.5845,40.9303,208.5294,0,U,62455,999,403,0,-.2E-5,0
AGILA,2024-252C,2026-07-07T21:18:49.363776,1.00271307,.0001145,0.0578,125.6062,15.8106,256.2884,0,U,62456,999,536,0,-.167E-5,0
NUVIEW BRAVO,2024-252D,2026-07-08T01:19:42.353184,1.00272698,.0001533,0.0684,163.0174,350.8657,68.9577,0,U,62457,999,400,0,-.2E-5,0
THURAYA-4,2025-001A,2026-07-08T03:38:38.480928,1.00273299,.0000098,0.0186,67.6579,178.5650,138.8476,0,U,62483,999,438,0,.154E-5,0
SHIJIAN-25 (SJ-25),2025-002A,2026-07-07T15:56:54.039840,1.00268764,.0052109,5.1585,61.0296,174.9674,56.1711,0,U,62485,999,556,0,-.338E-5,0
TJS-14,2025-017A,2026-07-08T03:31:16.686624,1.00273187,.0001654,0.7377,297.0830,291.6339,128.5946,0,U,62804,999,548,0,.131E-5,0
SPAINSAT NG I,2025-021A,2026-07-08T03:34:16.400352,1.00269719,.0000095,0.0184,19.9821,210.3647,138.3133,0,U,62852,999,419,0,.166E-5,0
