GALAXY 37 (G-37)        
1 57493U 23112A   26189.04664553  .00000063  00000+0  00000+0 0  9993
2 57493   0.0195  37.4214 0001840  76.8938  61.4872  1.00272444 10755
LUDI TANCE-4 01A        
1 57624U 23120A   26188.02012640 -.00000154  00000+0  00000+0 0  9991
2 57624  15.0918 193.4829 0001646  25.1906 162.9772  1.00265129 10748
TJS-10                  
1 58204U 23169A   26188.73369646 -.00000234  00000+0  00000+0 0  9997
2 58204   2.5940  80.2499 0004445 108.6074  93.3417  1.00267348  9744
ZHONGXING-6E            
1 58253U 23172A   26189.11086481  .00000000  00000+0  00000+0 0  9991
2 58253   0.0188  42.2091 0002161  68.0560 331.2067  1.00265600  9860
YAOGAN-41               
1 58582U 23197A   26189.02489211 -.00000345  00000+0  00000+0 0  9994
2 58582   3.0924 313.4445 0014346 197.7632 266.9426  1.00269858  9536
OVZON-3                 
1 58698U 24003A   26189.15486763  .00000067  00000+0  00000+0 0  9992
2 58698   0.0106  84.7696 0000038 202.9830 113.8002  1.00271902  7655
INSAT-3DS               
1 58990U 24033A   26189.08808222 -.00000141  00000+0  00000+0 0  9994
2 58990   0.0837  95.3554 0001081  22.7000 281.7700  1.00272301 47274
MERAH PUTIH 2           
1 58995U 24035A   26189.09414891  .00000000  00000+0  00000+0 0  9990
2 58995   0.0232  45.5391 0000947  76.9247 310.4372  1.00268140  8793
TJS-11                  
1 59020U 24037A   26188.95148774 -.00000347  00000+0  00000+0 0  9995
2 59020   4.1730 327.3216 0002911 135.0927 278.5831  1.00265582  8794
HULIANWAN GAOGUI-01 (H*)
1 59069U 24040A   26189.00721203  .00000171  00000+0  00000+0 0  9997
2 59069   0.0716 332.0957 0001765  74.5240 275.5891  1.00267764  7530
EUTELSAT 36D            
1 59346U 24059A   26189.15018759  .00000171  00000+0  00000+0 0  9996
2 59346   0.0192  49.2569 0000230 145.3528 181.4211  1.00272376  8351
PAKSAT-MM1              
1 59915U 24104A   26189.15062094  .00000169  00000+0  00000+0 0  9997
2 59915   0.0374 179.0985 0002154 266.1436 293.2719  1.00266029  7730
ASTRA 1P (SES-24)       
1 60086U 24115A   26189.07560215  .00000134  00000+0  00000+0 0  9991
2 60086   0.0600 333.7290 0001174 264.8187  93.9121  1.00263396  7400
GOES 19                 
1 60133U 24119A   26189.12816138 -.00000233  00000+0  00000+0 0  9993
2 60133   0.0329 203.6122 0000466 345.8715  67.5473  1.00271472  7175
ZHONGXING-3A            
1 60179U 24122A   26188.66401316 -.00000298  00000+0  00000+0 0  9994
2 60179   0.0330 133.7676 0001836  21.5491 110.9046  1.00268796  7517
TURKSAT 6A              
1 60233U 24127A   26188.22461147  .00000161  00000+0  00000+0 0  9998
2 60233   0.0432 192.3892 0002774 325.3714 250.2909  1.00272408  7215
HULIANWAN GAOGUI-02 (H*)
1 60327U 24135A   26187.89017682 -.00000160  00000+0  00000+0 0  9994
2 60327   0.0453 354.0269 0006717  15.3677  28.9466  1.00266706  7696
ZHONGXING-4A            
1 60606U 24151A   26189.09501558 -.00000346  00000+0  00000+0 0  9992
2 60606   1.2633 270.5641 0000201 267.9801 259.9448  1.00271429  6964
HULIANWAN GAOGUI-03 (H*)
1 61503U 24181A   26188.84265983 -.00000226  00000+0  00000+0 0  9990
2 61503   0.0489 357.9113 0001256  88.7434  65.3662  1.00273546  7031
DSN-3 (KIRAMEKI-3)      
1 61733U 24198A   26189.17150771 -.00000235  00000+0  00000+0 0  9998
2 61733   0.0277 277.5875 0000934 227.3571 346.9747  1.00269449  6137
KOREASAT 6A             
1 61910U 24206A   26189.11086483 -.00000347  00000+0  00000+0 0  9991
2 61910   0.0132 282.1897 0000759 166.0496 353.7549  1.00271603  6041
OPTUS-X (ADS-01)        
1 62006U 24212A   26189.19141852 -.00000128  00000+0  00000+0 0  9992
2 62006   0.0106 336.0193 0002344 176.7893 358.6600  1.00270627  5976
GSAT-N2 (GSAT-20)       
1 62028U 24214A   26189.15651431  .00000000  00000+0  00000+0 0  9991
2 62028   0.0166  30.8750 0001936  36.5679 342.9758  1.00270791  6103
SXM-9                   
1 62259U 24234A   26189.12616743 -.00000190  00000+0  00000+0 0  9994
2 62259   0.0170 333.4335 0004905 344.1874 288.7361  1.00270593  5789
TJS-12                  
1 62374U 24246A   26189.19141853 -.00000215  00000+0  00000+0 0  9995
2 62374   0.6274 301.2052 0001902 100.7813  99.6339  1.00271074  5778
NUVIEW ALPHA            
1 62455U 24252B   26189.20550816 -.00000200  00000+0  00000+0 0  9991
2 62455   0.0450  27.5845 0000980  40.9303 208.5294  1.00271887  4031
AGILA                   
1 62456U 24252C   26188.88807134 -.00000167  00000+0  00000+0 0  9995
2 62456   0.0578 125.6062 0001145  15.8106 256.2884  1.00271307  5369
NUVIEW BRAVO            
1 62457U 24252D   26189.05535131 -.00000200  00000+0  00000+0 0  9999
2 62457   0.0684 163.0174 0001533 350.8657  68.9577  1.00272698  4003
THURAYA-4               
1 62483U 25001A   26189.15183427  .00000154  00000+0  00000+0 0  9996
2 62483   0.0186  67.6579 0000098 178.5650 138.8476  1.00273299  4384
SHIJIAN-25 (SJ-25)      
1 62485U 25002A   26188.66451435 -.00000338  00000+0  00000+0 0  9996
2 62485   5.1585  61.0296 0052109 174.9674  56.1711  1.00268764  5561
TJS-14                  
1 62804U 25017A   26189.14672091  .00000131  00000+0  00000+0 0  9994
2 62804   0.7377 297.0830 0001654 291.6339 128.5946  1.00273187  5485
SPAINSAT NG I           
1 62852U 25021A   26189.14880093  .00000166  00000+0  00000+0 0  9993
2 62852   0.0184  19.9821 0000095 210.3647 138.3133  1.00269719  4196
